FENGYUN 1C DEB          
1 38119U 99025EPQ 17345.03642522 -.00000134  00000-0 -67434-4 0  9999
2 38119  98.6134 271.8850 0370278 236.9738 184.3416 13.69167106136783
